line1,line2,validFromUtcTime
1 00000U 00000E   26001.00000000  .00000000  00000-0  27772-4 0    01,2 00000  88.9289  30.3308 0010058 269.7671 105.3599 13.55313298    07,2026-01-01T00:00:00Z
1 00000U 00000E   26002.00000000  .00000000  00000-0  27772-4 0    02,2 00000  88.9289  30.2219 0010058 266.8566 304.4863 13.55313336    07,2026-01-02T00:00:00Z
